STARLINK-1484
1 15756C 20038AC  21326.14896892 -.00003098  00000-0 -20752-3 0  3266
2 15756  53.0553  58.0766 0001245  79.4342 251.1955 15.06409182    18
